[{"OBJECT_NAME":"STARLINK-30815","OBJECT_ID":"2023-166Q","EPOCH":"2026-03-09T17:19:20.073504","MEAN_MOTION":15.30184716,"ECCENTRICITY":8.987e-5,"INCLINATION":53.1597,"RA_OF_ASC_NODE":219.5075,"ARG_OF_PERICENTER":113.0004,"MEAN_ANOMALY":247.1092,"EPHEMERIS_TYPE":0,"CLASSIFICATION_TYPE":"U","NORAD_CAT_ID":58164,"ELEMENT_SET_NO":999,"REV_AT_EPOCH":13318,"BSTAR":5.153226e-6,"MEAN_MOTION_DOT":-2.06e-6,"MEAN_MOTION_DDOT":0},{"OBJECT_NAME":"OBJECT H","OBJECT_ID":"2025-055H","EPOCH":"2026-03-09T23:29:50.051328","MEAN_MOTION":15.30330066,"ECCENTRICITY":0.00075967,"INCLINATION":97.636,"RA_OF_ASC_NODE":211.9572,"ARG_OF_PERICENTER":140.4354,"MEAN_ANOMALY":219.7441,"EPHEMERIS_TYPE":0,"CLASSIFICATION_TYPE":"U","NORAD_CAT_ID":63298,"ELEMENT_SET_NO":999,"REV_AT_EPOCH":5423,"BSTAR":0.0015582864,"MEAN_MOTION_DOT":0.00045901,"MEAN_MOTION_DDOT":0}]
